STARLINK-1434           
1 45712U 20035BH  26068.24137979  .00054112  00000+0  20295-2 0  9995
2 45712  53.0547  22.1128 0005343  88.0400 272.1210 15.26724568319325
STARLINK-30566          
1 58054U 23158D   26068.24204221 -.00175118  00000+0 -66934-2 0  9994
2 58054  42.9973  29.3979 0000667 266.2017  93.8758 15.26649023133500
